NORAD_CAT_ID,OBJECT_NAME,OBJECT_TYPE,EPOCH,MEAN_MOTION,ECCENTRICITY,INCLINATION,RA_OF_ASC_NODE,ARG_OF_PERICENTER,MEAN_ANOMALY,BSTAR,MEAN_MOTION_DOT,MEAN_MOTION_DDOT,TLE_LINE0,TLE_LINE1,TLE_LINE2,SEMIMAJOR_AXIS,PERIOD,APOGEE,PERIGEE,DECAYED
52113.0,STARLINK-3736,PAYLOAD,2023-05-22 17:20:14,15.0884218,8.6e-05,53.2166,346.9086,66.5645,293.5438,6.4283e-05,7.36e-06,0.0,0 STARLINK-3736,1 52113U 22029AB  23142.72238647  .00000736  00000-0  64283-4 0  9991,2 52113  53.2166 346.9086 0000860  66.5645 293.5438 15.08842180 66507,6917.874,95.437,540.334,539.144,0.0
52113.0,STARLINK-3736,PAYLOAD,2023-05-22 20:31:00,15.08842803,8.5e-05,53.2166,346.3138,59.4514,300.6562,0.00028375,4.231e-05,0.0,0 STARLINK-3736,1 52113U 22029AB  23142.85486774  .00004231  00000-0  28375-3 0  9996,2 52113  53.2166 346.3138 0000850  59.4514 300.6562 15.08842803 66526,6917.872,95.437,540.325,539.149,0.0
52113.0,STARLINK-3736,PAYLOAD,2023-05-23 02:52:33,15.08831734,9.79e-05,53.2165,345.124,64.4919,295.6175,0.00058812,9.082e-05,0.0,0 STARLINK-3736,1 52113U 22029AB  23143.11983361  .00009082  00000-0  58812-3 0  9998,2 52113  53.2165 345.1240 0000979  64.4919 295.6175 15.08831734 66561,6917.906,95.438,540.448,539.093,0.0
52113.0,STARLINK-3736,PAYLOAD,2023-05-23 17:11:01,15.08857003,9.93e-05,53.2165,342.4477,57.182,302.9267,0.00063364,9.816e-05,0.0,0 STARLINK-3736,1 52113U 22029AB  23143.71598705  .00009816  00000-0  63364-3 0  9991,2 52113  53.2165 342.4477 0000993  57.1820 302.9267 15.08857003 66650,6917.828,95.436,540.38,539.006,0.0
52113.0,STARLINK-3736,PAYLOAD,2023-05-23 21:57:10,15.08861006,8.19e-05,53.2167,341.5556,63.1367,296.9708,0.00073041,0.00011362,0.0,0 STARLINK-3736,1 52113U 22029AB  23143.91470442  .00011362  00000-0  73041-3 0  9992,2 52113  53.2167 341.5556 0000819  63.1367 296.9708 15.08861006 66683,6917.816,95.436,540.248,539.115,0.0
52113.0,STARLINK-3736,PAYLOAD,2023-05-24 02:43:20,15.0884428,0.0001038,53.2167,340.6634,57.2338,302.8754,5.6085e-05,6.05e-06,0.0,0 STARLINK-3736,1 52113U 22029AB  23144.11342668  .00000605  00000-0  56085-4 0  9991,2 52113  53.2167 340.6634 0001038  57.2338 302.8754 15.08844280 66713,6917.867,95.437,540.45,539.014,0.0
52113.0,STARLINK-3736,PAYLOAD,2023-05-24 15:26:24,15.08850475,8.19e-05,53.2165,338.2845,79.0171,281.0913,0.00045067,6.894e-05,0.0,0 STARLINK-3736,1 52113U 22029AB  23144.64334445  .00006894  00000-0  45067-3 0  9996,2 52113  53.2165 338.2845 0000819  79.0171 281.0913 15.08850475 66797,6917.848,95.437,540.28,539.147,0.0
52113.0,STARLINK-3736,PAYLOAD,2023-05-25 18:27:58,15.08844087,8.66e-05,53.2162,333.2291,78.1338,281.9751,0.00030712,4.604e-05,0.0,0 STARLINK-3736,1 52113U 22029AB  23145.76942612  .00004604  00000-0  30712-3 0  9999,2 52113  53.2162 333.2291 0000866  78.1338 281.9751 15.08844087 66961,6917.868,95.437,540.332,539.134,0.0
52113.0,STARLINK-3736,PAYLOAD,2023-05-25 21:38:44,15.08844768,8.44e-05,53.2163,332.6347,79.4916,280.6172,0.00032439,4.879e-05,0.0,0 STARLINK-3736,1 52113U 22029AB  23145.90190573  .00004879  00000-0  32439-3 0  9998,2 52113  53.2163 332.6347 0000844  79.4916 280.6172 15.08844768 66980,6917.866,95.437,540.315,539.147,0.0
52113.0,STARLINK-3736,PAYLOAD,2023-05-26 11:57:13,15.08837079,8.88e-05,53.216,329.9584,80.8359,279.2734,8.5913e-05,1.08e-05,0.0,0 STARLINK-3736,1 52113U 22029AB  23146.49806860  .00001080  00000-0  85913-4 0  9993,2 52113  53.2160 329.9584 0000888  80.8359 279.2734 15.08837079 67070,6917.889,95.438,540.369,539.14,0.0
52113.0,STARLINK-3736,PAYLOAD,2023-05-26 18:18:45,15.08839559,9.15e-05,53.2165,328.7692,78.6969,281.4126,0.00012398,1.686e-05,0.0,0 STARLINK-3736,1 52113U 22029AB  23146.76302900  .00001686  00000-0  12398-3 0  9997,2 52113  53.2165 328.7692 0000915  78.6969 281.4126 15.08839559 67115,6917.882,95.438,540.38,539.114,0.0
52113.0,STARLINK-3736,PAYLOAD,2023-05-26 19:54:08,15.08841587,8.91e-05,53.2167,328.4719,78.4459,281.6634,0.00012163,1.649e-05,0.0,0 STARLINK-3736,1 52113U 22029AB  23146.82926834  .00001649  00000-0  12163-3 0  9991,2 52113  53.2167 328.4719 0000891  78.4459 281.6634 15.08841587 67120,6917.876,95.437,540.357,539.124,0.0
52113.0,STARLINK-3736,PAYLOAD,2023-05-27 18:09:32,15.08843078,7.68e-05,53.216,324.3095,82.1914,277.9165,0.00015178,2.129e-05,0.0,0 STARLINK-3736,1 52113U 22029AB  23147.75662792  .00002129  00000-0  15178-3 0  9997,2 52113  53.2160 324.3095 0000768  82.1914 277.9165 15.08843078 67265,6917.871,95.437,540.267,539.205,0.0
52113.0,STARLINK-3736,PAYLOAD,2023-05-28 05:17:14,15.08844584,7.56e-05,53.2163,322.2269,90.233,269.8748,0.0001704,2.426e-05,0.0,0 STARLINK-3736,1 52113U 22029AB  23148.22030702  .00002426  00000-0  17040-3 0  9990,2 52113  53.2163 322.2269 0000756  90.2330 269.8748 15.08844584 67335,6917.866,95.437,540.254,539.208,0.0
52113.0,STARLINK-3736,PAYLOAD,2023-05-28 16:24:56,15.08845489,8.09e-05,53.2168,320.1455,92.6296,267.4789,0.00012356,1.68e-05,0.0,0 STARLINK-3736,1 52113U 22029AB  23148.68398522  .00001680  00000-0  12356-3 0  9993,2 52113  53.2168 320.1455 0000809  92.6296 267.4789 15.08845489 67402,6917.864,95.437,540.288,539.169,0.0
52113.0,STARLINK-3736,PAYLOAD,2023-05-29 14:40:20,15.0883924,8.07e-05,53.2165,315.9829,86.5052,273.6033,4.44e-05,4.19e-06,0.0,0 STARLINK-3736,1 52113U 22029AB  23149.61135023  .00000419  00000-0  44400-4 0  9997,2 52113  53.2165 315.9829 0000807  86.5052 273.6033 15.08839240 67540,6917.883,95.438,540.306,539.189,0.0
52113.0,STARLINK-3736,PAYLOAD,2023-05-29 17:51:06,15.08840145,8.31e-05,53.2167,315.387,95.3815,264.7272,3.5404e-05,2.76e-06,0.0,0 STARLINK-3736,1 52113U 22029AB  23149.74382890  .00000276  00000-0  35404-4 0  9992,2 52113  53.2167 315.3870 0000831  95.3815 264.7272 15.08840145 67568,6917.88,95.438,540.32,539.17,0.0
52113.0,STARLINK-3736,PAYLOAD,2023-05-30 11:20:21,15.08837432,8.24e-05,53.2168,312.1165,94.7441,265.3645,2.7603e-05,1.52e-06,0.0,0 STARLINK-3736,1 52113U 22029AB  23150.47247132  .00000152  00000-0  27603-4 0  9998,2 52113  53.2168 312.1165 0000824  94.7441 265.3645 15.08837432 67679,6917.888,95.438,540.323,539.183,0.0
52113.0,STARLINK-3736,PAYLOAD,2023-05-30 16:06:30,15.0884186,8.24e-05,53.2169,311.2244,93.736,266.3726,6.1181e-05,6.86e-06,0.0,0 STARLINK-3736,1 52113U 22029AB  23150.67118763  .00000686  00000-0  61181-4 0  9998,2 52113  53.2169 311.2244 0000824  93.7360 266.3726 15.08841860 67702,6917.875,95.437,540.31,539.17,0.0
52113.0,STARLINK-3736,PAYLOAD,2023-05-31 11:11:08,15.08836965,9.78e-05,53.2183,307.6626,105.3671,254.743,7.7179e-05,9.41e-06,0.0,0 STARLINK-3736,1 52113U 22029AB  23151.46607159  .00000941  00000-0  77179-4 0  9996,2 52113  53.2183 307.6626 0000978 105.3671 254.7430 15.08836965 67822,6917.89,95.438,540.431,539.078,0.0
52113.0,STARLINK-3736,PAYLOAD,2023-05-31 14:21:54,15.08834807,8.68e-05,53.2163,307.0651,100.4127,259.6963,5.6528e-05,6.12e-06,0.0,0 STARLINK-3736,1 52113U 22029AB  23151.59855320  .00000612  00000-0  56528-4 0  9995,2 52113  53.2163 307.0651 0000868 100.4127 259.6963 15.08834807 67842,6917.896,95.438,540.362,539.161,0.0
52113.0,STARLINK-3736,PAYLOAD,2023-05-31 17:32:41,15.0883704,8.64e-05,53.2163,306.47,100.1621,259.9469,7.0942e-05,8.41e-06,0.0,0 STARLINK-3736,1 52113U 22029AB  23151.73103157  .00000841  00000-0  70942-4 0  9995,2 52113  53.2163 306.4700 0000864 100.1621 259.9469 15.08837040 67860,6917.889,95.438,540.352,539.157,0.0
52113.0,STARLINK-3736,PAYLOAD,2023-06-01 03:05:00,15.08835879,8.21e-05,53.2162,304.6845,99.3612,260.7473,5.231e-05,5.45e-06,0.0,0 STARLINK-3736,1 52113U 22029AB  23152.12847331  .00000545  00000-0  52310-4 0  9998,2 52113  53.2162 304.6845 0000821  99.3612 260.7473 15.08835879 67921,6917.893,95.438,540.326,539.19,0.0
52113.0,STARLINK-3736,PAYLOAD,2023-06-01 12:37:19,15.088362,7.84e-05,53.2163,302.9003,89.0046,271.1036,7.0117e-06,-1.76e-06,0.0,0 STARLINK-3736,1 52113U 22029AB  23152.52591621 -.00000176  00000-0  70117-5 0  9997,2 52113  53.2163 302.9003 0000784  89.0046 271.1036 15.08836200 67980,6917.892,95.438,540.299,539.215,0.0
52113.0,STARLINK-3736,PAYLOAD,2023-06-02 14:03:29,15.08833094,0.000106,53.2162,298.1411,85.424,274.6874,5.1263e-05,5.28e-06,0.0,0 STARLINK-3736,1 52113U 22029AB  23153.58575957  .00000528  00000-0  51263-4 0  9998,2 52113  53.2162 298.1411 0001060  85.4240 274.6874 15.08833094 68147,6917.901,95.438,540.5,539.033,0.0
52113.0,STARLINK-3736,PAYLOAD,2023-06-02 17:14:15,15.08836509,9.32e-05,53.2169,297.5469,81.7761,278.3337,2.0047e-05,3.1e-07,0.0,0 STARLINK-3736,1 52113U 22029AB  23153.71823860  .00000031  00000-0  20047-4 0  9997,2 52113  53.2169 297.5469 0000932  81.7761 278.3337 15.08836509 68165,6917.891,95.438,540.401,539.111,0.0
52113.0,STARLINK-3736,PAYLOAD,2023-06-03 09:08:07,15.08820419,9.93e-05,53.2171,294.573,85.481,274.6295,0.00031731,4.763e-05,0.0,0 STARLINK-3736,1 52113U 22029AB  23154.38064299  .00004763  00000-0  31731-3 0  9991,2 52113  53.2171 294.5730 0000993  85.4810 274.6295 15.08820419 68265,6917.94,95.439,540.492,539.118,0.0
52113.0,STARLINK-3736,PAYLOAD,2023-06-03 13:54:13,15.08931352,0.0001617,53.2169,293.681,60.6606,299.4547,-0.0012646,-0.00020408,0.0,0 STARLINK-3736,1 52113U 22029AB  23154.57932486 -.00020408  00000-0 -12646-2 0  9993,2 52113  53.2169 293.6810 0001617  60.6606 299.4547 15.08931352 68290,6917.601,95.432,540.585,538.348,0.0
52113.0,STARLINK-3736,PAYLOAD,2023-06-03 15:29:39,15.08842113,9.91e-05,53.217,293.3839,76.3692,283.741,5.5267e-05,5.92e-06,0.0,0 STARLINK-3736,1 52113U 22029AB  23154.64559633  .00000592  00000-0  55267-4 0  9998,2 52113  53.2170 293.3839 0000991  76.3692 283.7410 15.08842113 68306,6917.874,95.437,540.424,539.053,0.0
52113.0,STARLINK-3736,PAYLOAD,2023-06-04 13:45:03,15.08834908,8.8e-05,53.2165,289.2205,77.775,282.334,7.9679e-05,9.8e-06,0.0,0 STARLINK-3736,1 52113U 22029AB  23155.57296005  .00000980  00000-0  79679-4 0  9996,2 52113  53.2165 289.2205 0000880  77.7750 282.3340 15.08834908 68443,6917.896,95.438,540.37,539.152,0.0
